CCSDS_OMM_VERS = 2.0
CREATION_DATE  = 
ORIGINATOR     = 

OBJECT_NAME    = SL-14 R/B
OBJECT_ID      = 1986-046B
CENTER_NAME    = EARTH
REF_FRAME      = TEME
TIME_SYSTEM    = UTC
MEAN_ELEMENT_THEORY = SGP/SGP4

EPOCH          = 2026-04-03T20:43:01.938432
MEAN_MOTION    = 14.85617945
ECCENTRICITY   = .0024033
INCLINATION    = 82.4815
RA_OF_ASC_NODE = 56.3912
ARG_OF_PERICENTER = 141.7301
MEAN_ANOMALY   = 218.5627

EPHEMERIS_TYPE = 0
CLASSIFICATION_TYPE = U
NORAD_CAT_ID   = 16792
ELEMENT_SET_NO = 999
REV_AT_EPOCH   = 13014
BSTAR          = .93538E-4
MEAN_MOTION_DOT = .838E-5
MEAN_MOTION_DDOT = 0

CCSDS_OMM_VERS = 2.0
CREATION_DATE  = 
ORIGINATOR     = 

OBJECT_NAME    = SL-14 R/B
OBJECT_ID      = 1986-055B
CENTER_NAME    = EARTH
REF_FRAME      = TEME
TIME_SYSTEM    = UTC
MEAN_ELEMENT_THEORY = SGP/SGP4

EPOCH          = 2026-04-03T12:46:38.954784
MEAN_MOTION    = 14.85667098
ECCENTRICITY   = .00174077
INCLINATION    = 82.5169
RA_OF_ASC_NODE = 103.3167
ARG_OF_PERICENTER = 248.2650
MEAN_ANOMALY   = 233.3338

EPHEMERIS_TYPE = 0
CLASSIFICATION_TYPE = U
NORAD_CAT_ID   = 16882
ELEMENT_SET_NO = 999
REV_AT_EPOCH   = 12305
BSTAR          = .86304442E-4
MEAN_MOTION_DOT = .773E-5
MEAN_MOTION_DDOT = 0

CCSDS_OMM_VERS = 2.0
CREATION_DATE  = 
ORIGINATOR     = 

OBJECT_NAME    = AJISAI (EGS)
OBJECT_ID      = 1986-061A
CENTER_NAME    = EARTH
REF_FRAME      = TEME
TIME_SYSTEM    = UTC
MEAN_ELEMENT_THEORY = SGP/SGP4

EPOCH          = 2026-04-03T20:31:59.628864
MEAN_MOTION    = 12.44515643
ECCENTRICITY   = .0011356
INCLINATION    = 50.0123
RA_OF_ASC_NODE = 15.9628
ARG_OF_PERICENTER = 351.7821
MEAN_ANOMALY   = 95.4236

EPHEMERIS_TYPE = 0
CLASSIFICATION_TYPE = U
NORAD_CAT_ID   = 16908
ELEMENT_SET_NO = 999
REV_AT_EPOCH   = 47113
BSTAR          = -.44949E-4
MEAN_MOTION_DOT = -.104E-5
MEAN_MOTION_DDOT = 0

CCSDS_OMM_VERS = 2.0
CREATION_DATE  = 
ORIGINATOR     = 

OBJECT_NAME    = SL-14 R/B
OBJECT_ID      = 1987-024B
CENTER_NAME    = EARTH
REF_FRAME      = TEME
TIME_SYSTEM    = UTC
MEAN_ELEMENT_THEORY = SGP/SGP4

EPOCH          = 2026-04-03T21:17:55.241952
MEAN_MOTION    = 14.86159174
ECCENTRICITY   = .0018361
INCLINATION    = 82.5263
RA_OF_ASC_NODE = 69.0739
ARG_OF_PERICENTER = 172.3450
MEAN_ANOMALY   = 187.8050

EPHEMERIS_TYPE = 0
CLASSIFICATION_TYPE = U
NORAD_CAT_ID   = 17567
ELEMENT_SET_NO = 999
REV_AT_EPOCH   = 9187
BSTAR          = .90427E-4
MEAN_MOTION_DOT = .82E-5
MEAN_MOTION_DDOT = 0

CCSDS_OMM_VERS = 2.0
CREATION_DATE  = 
ORIGINATOR     = 

OBJECT_NAME    = COSMOS 1833
OBJECT_ID      = 1987-027A
CENTER_NAME    = EARTH
REF_FRAME      = TEME
TIME_SYSTEM    = UTC
MEAN_ELEMENT_THEORY = SGP/SGP4

EPOCH          = 2026-04-03T20:22:42.405888
MEAN_MOTION    = 14.13044513
ECCENTRICITY   = .0022997
INCLINATION    = 70.9164
RA_OF_ASC_NODE = 273.1352
ARG_OF_PERICENTER = 176.9964
MEAN_ANOMALY   = 183.1300

EPHEMERIS_TYPE = 0
CLASSIFICATION_TYPE = U
NORAD_CAT_ID   = 17589
ELEMENT_SET_NO = 999
REV_AT_EPOCH   = 1387
BSTAR          = -.1394E-3
MEAN_MOTION_DOT = -.309E-5
MEAN_MOTION_DDOT = 0

CCSDS_OMM_VERS = 2.0
CREATION_DATE  = 
ORIGINATOR     = 

OBJECT_NAME    = SL-16 R/B
OBJECT_ID      = 1987-027B
CENTER_NAME    = EARTH
REF_FRAME      = TEME
TIME_SYSTEM    = UTC
MEAN_ELEMENT_THEORY = SGP/SGP4

EPOCH          = 2026-04-03T19:41:18.110400
MEAN_MOTION    = 14.17168275
ECCENTRICITY   = .0002871
INCLINATION    = 71.0024
RA_OF_ASC_NODE = 223.5345
ARG_OF_PERICENTER = 79.1178
MEAN_ANOMALY   = 281.0268

EPHEMERIS_TYPE = 0
CLASSIFICATION_TYPE = U
NORAD_CAT_ID   = 17590
ELEMENT_SET_NO = 999
REV_AT_EPOCH   = 1890
BSTAR          = .16848E-3
MEAN_MOTION_DOT = .292E-5
MEAN_MOTION_DDOT = 0

CCSDS_OMM_VERS = 2.0
CREATION_DATE  = 
ORIGINATOR     = 

OBJECT_NAME    = SL-14 R/B
OBJECT_ID      = 1987-038B
CENTER_NAME    = EARTH
REF_FRAME      = TEME
TIME_SYSTEM    = UTC
MEAN_ELEMENT_THEORY = SGP/SGP4

EPOCH          = 2026-04-03T13:24:16.255872
MEAN_MOTION    = 14.85394765
ECCENTRICITY   = .0020754
INCLINATION    = 82.4977
RA_OF_ASC_NODE = 273.3726
ARG_OF_PERICENTER = 83.0831
MEAN_ANOMALY   = 277.2745

EPHEMERIS_TYPE = 0
CLASSIFICATION_TYPE = U
NORAD_CAT_ID   = 17912
ELEMENT_SET_NO = 999
REV_AT_EPOCH   = 8292
BSTAR          = .93349E-4
MEAN_MOTION_DOT = .831E-5
MEAN_MOTION_DDOT = 0

CCSDS_OMM_VERS = 2.0
CREATION_DATE  = 
ORIGINATOR     = 

OBJECT_NAME    = COSMOS 1844
OBJECT_ID      = 1987-041A
CENTER_NAME    = EARTH
REF_FRAME      = TEME
TIME_SYSTEM    = UTC
MEAN_ELEMENT_THEORY = SGP/SGP4

EPOCH          = 2026-04-03T20:34:43.685184
MEAN_MOTION    = 14.14561764
ECCENTRICITY   = .0031474
INCLINATION    = 70.9016
RA_OF_ASC_NODE = 341.0927
ARG_OF_PERICENTER = 340.9396
MEAN_ANOMALY   = 19.0545

EPHEMERIS_TYPE = 0
CLASSIFICATION_TYPE = U
NORAD_CAT_ID   = 17973
ELEMENT_SET_NO = 999
REV_AT_EPOCH   = 714
BSTAR          = .2166E-3
MEAN_MOTION_DOT = .369E-5
MEAN_MOTION_DDOT = 0

CCSDS_OMM_VERS = 2.0
CREATION_DATE  = 
ORIGINATOR     = 

OBJECT_NAME    = SL-14 R/B
OBJECT_ID      = 1987-055B
CENTER_NAME    = EARTH
REF_FRAME      = TEME
TIME_SYSTEM    = UTC
MEAN_ELEMENT_THEORY = SGP/SGP4

EPOCH          = 2026-04-03T17:35:35.079360
MEAN_MOTION    = 14.85655666
ECCENTRICITY   = .001922
INCLINATION    = 82.4996
RA_OF_ASC_NODE = 325.4307
ARG_OF_PERICENTER = 292.6522
MEAN_ANOMALY   = 67.2661

EPHEMERIS_TYPE = 0
CLASSIFICATION_TYPE = U
NORAD_CAT_ID   = 18153
ELEMENT_SET_NO = 999
REV_AT_EPOCH   = 7365
BSTAR          = .78297E-4
MEAN_MOTION_DOT = .704E-5
MEAN_MOTION_DDOT = 0

CCSDS_OMM_VERS = 2.0
CREATION_DATE  = 
ORIGINATOR     = 

OBJECT_NAME    = COSMOS 1867
OBJECT_ID      = 1987-060A
CENTER_NAME    = EARTH
REF_FRAME      = TEME
TIME_SYSTEM    = UTC
MEAN_ELEMENT_THEORY = SGP/SGP4

EPOCH          = 2026-04-03T17:32:48.556320
MEAN_MOTION    = 14.31507283
ECCENTRICITY   = .0014935
INCLINATION    = 65.0101
RA_OF_ASC_NODE = 236.5733
ARG_OF_PERICENTER = 280.0607
MEAN_ANOMALY   = 79.8792

EPHEMERIS_TYPE = 0
CLASSIFICATION_TYPE = U
NORAD_CAT_ID   = 18187
ELEMENT_SET_NO = 999
REV_AT_EPOCH   = 2352
BSTAR          = .44789E-4
MEAN_MOTION_DOT = .19E-6
MEAN_MOTION_DDOT = 0

CCSDS_OMM_VERS = 2.0
CREATION_DATE  = 
ORIGINATOR     = 

OBJECT_NAME    = SL-14 R/B
OBJECT_ID      = 1988-001B
CENTER_NAME    = EARTH
REF_FRAME      = TEME
TIME_SYSTEM    = UTC
MEAN_ELEMENT_THEORY = SGP/SGP4

EPOCH          = 2026-04-03T14:17:25.610784
MEAN_MOTION    = 14.85556698
ECCENTRICITY   = .0018808
INCLINATION    = 82.5157
RA_OF_ASC_NODE = 171.9431
ARG_OF_PERICENTER = 151.9375
MEAN_ANOMALY   = 208.2859

EPHEMERIS_TYPE = 0
CLASSIFICATION_TYPE = U
NORAD_CAT_ID   = 18749
ELEMENT_SET_NO = 999
REV_AT_EPOCH   = 4572
BSTAR          = .85536E-4
MEAN_MOTION_DOT = .766E-5
MEAN_MOTION_DDOT = 0

CCSDS_OMM_VERS = 2.0
CREATION_DATE  = 
ORIGINATOR     = 

OBJECT_NAME    = COSMOS 1933
OBJECT_ID      = 1988-020A
CENTER_NAME    = EARTH
REF_FRAME      = TEME
TIME_SYSTEM    = UTC
MEAN_ELEMENT_THEORY = SGP/SGP4

EPOCH          = 2026-04-03T18:30:48.875328
MEAN_MOTION    = 15.18241542
ECCENTRICITY   = .0005489
INCLINATION    = 82.5138
RA_OF_ASC_NODE = 226.0899
ARG_OF_PERICENTER = 109.4557
MEAN_ANOMALY   = 250.7271

EPHEMERIS_TYPE = 0
CLASSIFICATION_TYPE = U
NORAD_CAT_ID   = 18958
ELEMENT_SET_NO = 999
REV_AT_EPOCH   = 5403
BSTAR          = .42051E-3
MEAN_MOTION_DOT = .8641E-4
MEAN_MOTION_DDOT = 0

